KUIPER-00247            
1 67152U 25301V   26066.07296433  .00037032  00000+0  10188-2 0  9990
2 67152  51.8619  78.6146 0014440  52.6070 307.6229 15.36726838 13325
KUIPER-00248            
1 67153U 25301W   26066.03990252  .00053891  00000+0  14481-2 0  9998
2 67153  51.8664  78.4344 0011023  34.5606 325.6095 15.37329993 13493
KUIPER-00249            
1 67154U 25301X   26066.07717331  .00037851  00000+0  10010-2 0  9990
2 67154  51.8639  77.9281 0010590  35.9638 324.2059 15.37986152 13332
KUIPER-00250            
1 67155U 25301Y   26066.16670139 -.01827529  00000+0 -18584+0 0  9998
2 67155  51.8941  81.3888 0009633  50.8175  14.7072 14.94220654  5897
KUIPER-00251            
1 67156U 25301Z   26065.63950718  .00030575  00000+0  82423-3 0  9995
2 67156  51.8657  80.2438 0011415  34.8126 325.3605 15.37490918 13454
KUIPER-00252            
1 67157U 25301AA  26066.04750078  .00059848  00000+0  16085-2 0  9993
2 67157  51.8652  78.4711 0012586  44.5768 315.6228 15.37257631 13325
KUIPER-00261            
1 67158U 25301AB  26066.16670139 -.00038347  00000+0 -38522-2 0  9999
2 67158  51.8971  81.6760 0010522  52.6572  93.0808 14.90787450  5564
KUIPER-00265            
1 67159U 25301AC  26066.10500433  .00004130  00000+0  57034-3 0  9994
2 67159  51.9016  97.0412 0001034  36.7954 323.3079 14.79941689 13107
KUIPER-00159            
1 67764U 26030A   26066.15941061  .00035858  00000+0  10247-2 0  9992
2 67764  51.8846 231.3674 0004808  38.8018 321.3312 15.35645549  4701
KUIPER-00160            
1 67765U 26030B   26065.96554499  .00024135  00000+0  69845-3 0  9991
2 67765  51.8812 232.3095 0005121  47.6911 312.4508 15.35459040  4675
KUIPER-00177            
1 67766U 26030C   26065.95238233  .00035192  00000+0  98167-3 0  9990
2 67766  51.8826 232.2305 0001273  16.8903 343.2125 15.36417577  4674
KUIPER-00178            
1 67767U 26030D   26065.96730259  .00033670  00000+0  96974-3 0  9990
2 67767  51.8833 232.3263 0006376  38.9732 321.1712 15.35423814  4678
KUIPER-00180            
1 67768U 26030E   26065.93606875 -.00015770  00000+0 -49174-3 0  9997
2 67768  51.8812 232.8497 0014276  60.3029 299.9374 15.31911700  4663
KUIPER-00197            
1 67769U 26030F   26065.95465492  .00035343  00000+0  98983-3 0  9996
2 67769  51.8827 232.2446 0001422  53.9682 306.1436 15.36290829  4678
KUIPER-00198            
1 67770U 26030G   26065.95988263  .00036965  00000+0  10463-2 0  9991
2 67770  51.8807 232.2734 0003393  38.8506 321.2724 15.35933818  4673
KUIPER-00199            
1 67771U 26030H   26066.17877177  .00051335  00000+0  15229-2 0  9991
2 67771  51.8825 231.4828 0010486  53.1698 307.0248 15.34264276  4703
KUIPER-00200            
1 67772U 26030J   26065.94567875  .00043608  00000+0  11919-2 0  9993
2 67772  51.8805 232.1832 0001199 236.8219 123.2653 15.36950991  4677
