[{"OBJECT_NAME":"KUIPER-00247","OBJECT_ID":"2025-301V","EPOCH":"2026-03-07T01:45:04.118112","MEAN_MOTION":15.36726838,"ECCENTRICITY":0.001444,"INCLINATION":51.8619,"RA_OF_ASC_NODE":78.6146,"ARG_OF_PERICENTER":52.607,"MEAN_ANOMALY":307.6229,"EPHEMERIS_TYPE":0,"CLASSIFICATION_TYPE":"U","NORAD_CAT_ID":67152,"ELEMENT_SET_NO":999,"REV_AT_EPOCH":1332,"BSTAR":0.0010188,"MEAN_MOTION_DOT":0.00037032,"MEAN_MOTION_DDOT":0},{"OBJECT_NAME":"KUIPER-00248","OBJECT_ID":"2025-301W","EPOCH":"2026-03-07T00:57:27.577728","MEAN_MOTION":15.37329993,"ECCENTRICITY":0.0011023,"INCLINATION":51.8664,"RA_OF_ASC_NODE":78.4344,"ARG_OF_PERICENTER":34.5606,"MEAN_ANOMALY":325.6095,"EPHEMERIS_TYPE":0,"CLASSIFICATION_TYPE":"U","NORAD_CAT_ID":67153,"ELEMENT_SET_NO":999,"REV_AT_EPOCH":1349,"BSTAR":0.0014481,"MEAN_MOTION_DOT":0.00053891,"MEAN_MOTION_DDOT":0},{"OBJECT_NAME":"KUIPER-00249","OBJECT_ID":"2025-301X","EPOCH":"2026-03-07T01:51:07.773984","MEAN_MOTION":15.37986152,"ECCENTRICITY":0.001059,"INCLINATION":51.8639,"RA_OF_ASC_NODE":77.9281,"ARG_OF_PERICENTER":35.9638,"MEAN_ANOMALY":324.2059,"EPHEMERIS_TYPE":0,"CLASSIFICATION_TYPE":"U","NORAD_CAT_ID":67154,"ELEMENT_SET_NO":999,"REV_AT_EPOCH":1333,"BSTAR":0.001001,"MEAN_MOTION_DOT":0.00037851,"MEAN_MOTION_DDOT":0},{"OBJECT_NAME":"KUIPER-00250","OBJECT_ID":"2025-301Y","EPOCH":"2026-03-07T04:00:03.000096","MEAN_MOTION":14.94220654,"ECCENTRICITY":0.0009633,"INCLINATION":51.8941,"RA_OF_ASC_NODE":81.3888,"ARG_OF_PERICENTER":50.8175,"MEAN_ANOMALY":14.7072,"EPHEMERIS_TYPE":0,"CLASSIFICATION_TYPE":"U","NORAD_CAT_ID":67155,"ELEMENT_SET_NO":999,"REV_AT_EPOCH":589,"BSTAR":-0.18584,"MEAN_MOTION_DOT":-0.01827529,"MEAN_MOTION_DDOT":0},{"OBJECT_NAME":"KUIPER-00251","OBJECT_ID":"2025-301Z","EPOCH":"2026-03-06T15:20:53.420352","MEAN_MOTION":15.37490918,"ECCENTRICITY":0.00114152,"INCLINATION":51.8657,"RA_OF_ASC_NODE":80.2438,"ARG_OF_PERICENTER":34.8126,"MEAN_ANOMALY":325.3605,"EPHEMERIS_TYPE":0,"CLASSIFICATION_TYPE":"U","NORAD_CAT_ID":67156,"ELEMENT_SET_NO":999,"REV_AT_EPOCH":1345,"BSTAR":0.00082423358,"MEAN_MOTION_DOT":0.00030575,"MEAN_MOTION_DDOT":0},{"OBJECT_NAME":"KUIPER-00252","OBJECT_ID":"2025-301AA","EPOCH":"2026-03-07T01:08:24.067392","MEAN_MOTION":15.37257631,"ECCENTRICITY":0.0012586,"INCLINATION":51.8652,"RA_OF_ASC_NODE":78.4711,"ARG_OF_PERICENTER":44.5768,"MEAN_ANOMALY":315.6228,"EPHEMERIS_TYPE":0,"CLASSIFICATION_TYPE":"U","NORAD_CAT_ID":67157,"ELEMENT_SET_NO":999,"REV_AT_EPOCH":1332,"BSTAR":0.0016085,"MEAN_MOTION_DOT":0.00059848,"MEAN_MOTION_DDOT":0},{"OBJECT_NAME":"KUIPER-00261","OBJECT_ID":"2025-301AB","EPOCH":"2026-03-07T04:00:03.000096","MEAN_MOTION":14.9078745,"ECCENTRICITY":0.0010522,"INCLINATION":51.8971,"RA_OF_ASC_NODE":81.676,"ARG_OF_PERICENTER":52.6572,"MEAN_ANOMALY":93.0808,"EPHEMERIS_TYPE":0,"CLASSIFICATION_TYPE":"U","NORAD_CAT_ID":67158,"ELEMENT_SET_NO":999,"REV_AT_EPOCH":556,"BSTAR":-0.0038522,"MEAN_MOTION_DOT":-0.00038347,"MEAN_MOTION_DDOT":0},{"OBJECT_NAME":"KUIPER-00265","OBJECT_ID":"2025-301AC","EPOCH":"2026-03-07T02:31:12.374112","MEAN_MOTION":14.79941689,"ECCENTRICITY":0.0001034,"INCLINATION":51.9016,"RA_OF_ASC_NODE":97.0412,"ARG_OF_PERICENTER":36.7954,"MEAN_ANOMALY":323.3079,"EPHEMERIS_TYPE":0,"CLASSIFICATION_TYPE":"U","NORAD_CAT_ID":67159,"ELEMENT_SET_NO":999,"REV_AT_EPOCH":1310,"BSTAR":0.00057034,"MEAN_MOTION_DOT":4.13e-5,"MEAN_MOTION_DDOT":0},{"OBJECT_NAME":"KUIPER-00159","OBJECT_ID":"2026-030A","EPOCH":"2026-03-07T03:49:33.076704","MEAN_MOTION":15.35645549,"ECCENTRICITY":0.0004808,"INCLINATION":51.8846,"RA_OF_ASC_NODE":231.3674,"ARG_OF_PERICENTER":38.8018,"MEAN_ANOMALY":321.3312,"EPHEMERIS_TYPE":0,"CLASSIFICATION_TYPE":"U","NORAD_CAT_ID":67764,"ELEMENT_SET_NO":999,"REV_AT_EPOCH":470,"BSTAR":0.0010247,"MEAN_MOTION_DOT":0.00035858,"MEAN_MOTION_DDOT":0},{"OBJECT_NAME":"KUIPER-00160","OBJECT_ID":"2026-030B","EPOCH":"2026-03-06T23:10:23.087136","MEAN_MOTION":15.3545904,"ECCENTRICITY":0.0005121,"INCLINATION":51.8812,"RA_OF_ASC_NODE":232.3095,"ARG_OF_PERICENTER":47.6911,"MEAN_ANOMALY":312.4508,"EPHEMERIS_TYPE":0,"CLASSIFICATION_TYPE":"U","NORAD_CAT_ID":67765,"ELEMENT_SET_NO":999,"REV_AT_EPOCH":467,"BSTAR":0.00069845,"MEAN_MOTION_DOT":0.00024135,"MEAN_MOTION_DDOT":0},{"OBJECT_NAME":"KUIPER-00177","OBJECT_ID":"2026-030C","EPOCH":"2026-03-06T22:51:25.833312","MEAN_MOTION":15.36417577,"ECCENTRICITY":0.0001273,"INCLINATION":51.8826,"RA_OF_ASC_NODE":232.2305,"ARG_OF_PERICENTER":16.8903,"MEAN_ANOMALY":343.2125,"EPHEMERIS_TYPE":0,"CLASSIFICATION_TYPE":"U","NORAD_CAT_ID":67766,"ELEMENT_SET_NO":999,"REV_AT_EPOCH":467,"BSTAR":0.00098167,"MEAN_MOTION_DOT":0.00035192,"MEAN_MOTION_DDOT":0},{"OBJECT_NAME":"KUIPER-00178","OBJECT_ID":"2026-030D","EPOCH":"2026-03-06T23:12:54.943776","MEAN_MOTION":15.35423814,"ECCENTRICITY":0.0006376,"INCLINATION":51.8833,"RA_OF_ASC_NODE":232.3263,"ARG_OF_PERICENTER":38.9732,"MEAN_ANOMALY":321.1712,"EPHEMERIS_TYPE":0,"CLASSIFICATION_TYPE":"U","NORAD_CAT_ID":67767,"ELEMENT_SET_NO":999,"REV_AT_EPOCH":467,"BSTAR":0.00096974,"MEAN_MOTION_DOT":0.0003367,"MEAN_MOTION_DDOT":0},{"OBJECT_NAME":"KUIPER-00180","OBJECT_ID":"2026-030E","EPOCH":"2026-03-06T22:27:56.340000","MEAN_MOTION":15.319117,"ECCENTRICITY":0.0014276,"INCLINATION":51.8812,"RA_OF_ASC_NODE":232.8497,"ARG_OF_PERICENTER":60.3029,"MEAN_ANOMALY":299.9374,"EPHEMERIS_TYPE":0,"CLASSIFICATION_TYPE":"U","NORAD_CAT_ID":67768,"ELEMENT_SET_NO":999,"REV_AT_EPOCH":466,"BSTAR":-0.00049174,"MEAN_MOTION_DOT":-0.0001577,"MEAN_MOTION_DDOT":0},{"OBJECT_NAME":"KUIPER-00197","OBJECT_ID":"2026-030F","EPOCH":"2026-03-06T22:54:42.185088","MEAN_MOTION":15.36290829,"ECCENTRICITY":0.0001422,"INCLINATION":51.8827,"RA_OF_ASC_NODE":232.2446,"ARG_OF_PERICENTER":53.9682,"MEAN_ANOMALY":306.1436,"EPHEMERIS_TYPE":0,"CLASSIFICATION_TYPE":"U","NORAD_CAT_ID":67769,"ELEMENT_SET_NO":999,"REV_AT_EPOCH":467,"BSTAR":0.00098983,"MEAN_MOTION_DOT":0.00035343,"MEAN_MOTION_DDOT":0},{"OBJECT_NAME":"KUIPER-00198","OBJECT_ID":"2026-030G","EPOCH":"2026-03-06T23:02:13.859232","MEAN_MOTION":15.35933818,"ECCENTRICITY":0.0003393,"INCLINATION":51.8807,"RA_OF_ASC_NODE":232.2734,"ARG_OF_PERICENTER":38.8506,"MEAN_ANOMALY":321.2724,"EPHEMERIS_TYPE":0,"CLASSIFICATION_TYPE":"U","NORAD_CAT_ID":67770,"ELEMENT_SET_NO":999,"REV_AT_EPOCH":467,"BSTAR":0.0010463,"MEAN_MOTION_DOT":0.00036965,"MEAN_MOTION_DDOT":0},{"OBJECT_NAME":"KUIPER-00199","OBJECT_ID":"2026-030H","EPOCH":"2026-03-07T04:17:25.880928","MEAN_MOTION":15.34264276,"ECCENTRICITY":0.0010486,"INCLINATION":51.8825,"RA_OF_ASC_NODE":231.4828,"ARG_OF_PERICENTER":53.1698,"MEAN_ANOMALY":307.0248,"EPHEMERIS_TYPE":0,"CLASSIFICATION_TYPE":"U","NORAD_CAT_ID":67771,"ELEMENT_SET_NO":999,"REV_AT_EPOCH":470,"BSTAR":0.0015229,"MEAN_MOTION_DOT":0.00051335,"MEAN_MOTION_DDOT":0},{"OBJECT_NAME":"KUIPER-00200","OBJECT_ID":"2026-030J","EPOCH":"2026-03-06T22:41:46.644000","MEAN_MOTION":15.36950991,"ECCENTRICITY":0.0001199,"INCLINATION":51.8805,"RA_OF_ASC_NODE":232.1832,"ARG_OF_PERICENTER":236.8219,"MEAN_ANOMALY":123.2653,"EPHEMERIS_TYPE":0,"CLASSIFICATION_TYPE":"U","NORAD_CAT_ID":67772,"ELEMENT_SET_NO":999,"REV_AT_EPOCH":467,"BSTAR":0.0011919,"MEAN_MOTION_DOT":0.00043608,"MEAN_MOTION_DDOT":0}]
